STARLINK-32319          
1 61528U 24183V   26068.46665027  .00000201  00000+0  18934-4 0  9999
2 61528  53.1602 143.8044 0001337  64.9227 295.1913 15.30184615 79616
TEVEL2-5                
1 63214U 25052E   26068.96660006  .00021339  00000+0  71765-3 0  9991
2 63214  97.4013 325.3677 0004700  95.3936 264.7842 15.30817434 54919
