[{"OBJECT_NAME":"STARLINK-32319","OBJECT_ID":"2024-183V","EPOCH":"2026-03-09T11:11:58.583328","MEAN_MOTION":15.30184615,"ECCENTRICITY":0.00013372,"INCLINATION":53.1602,"RA_OF_ASC_NODE":143.8044,"ARG_OF_PERICENTER":64.9227,"MEAN_ANOMALY":295.1913,"EPHEMERIS_TYPE":0,"CLASSIFICATION_TYPE":"U","NORAD_CAT_ID":61528,"ELEMENT_SET_NO":999,"REV_AT_EPOCH":7961,"BSTAR":1.8933656e-5,"MEAN_MOTION_DOT":2.01e-6,"MEAN_MOTION_DDOT":0},{"OBJECT_NAME":"TEVEL2-5","OBJECT_ID":"2025-052E","EPOCH":"2026-03-09T23:11:54.246048","MEAN_MOTION":15.30817434,"ECCENTRICITY":0.00047002,"INCLINATION":97.4013,"RA_OF_ASC_NODE":325.3677,"ARG_OF_PERICENTER":95.3936,"MEAN_ANOMALY":264.7842,"EPHEMERIS_TYPE":0,"CLASSIFICATION_TYPE":"U","NORAD_CAT_ID":63214,"ELEMENT_SET_NO":999,"REV_AT_EPOCH":5491,"BSTAR":0.00071764727,"MEAN_MOTION_DOT":0.00021339,"MEAN_MOTION_DDOT":0}]
